{
  "type": "FeatureCollection",
  "features": [
    {
      "type": "Feature",
      "properties": {
        "norad_id": 44333,
        "name": "AT&T T-16",
        "group": "intelsat",
        "lat": -0.010575439021571157,
        "lon": -128.01462270736752,
        "alt_km": 35786.45340277559,
        "timestamp": "2025-12-09T16:56:36.248299+00:00",
        "meta_object_name": "AT&T T-16",
        "meta_object_id": "2019-034A",
        "meta_epoch": "2025-12-09T12:26:50.356032",
        "meta_mean_motion": 1.00268587,
        "meta_eccentricity": 5.42e-05,
        "meta_inclination": 0.0236,
        "meta_ra_of_asc_node": 62.6366,
        "meta_arg_of_pericenter": 92.983,
        "meta_mean_anomaly": 8.7393,
        "meta_ephemeris_type": 0,
        "meta_classification_type": "U",
        "meta_norad_cat_id": 44333,
        "meta_element_set_no": 999,
        "meta_rev_at_epoch": 2373,
        "meta_bstar": 0,
        "meta_mean_motion_dot": -1.13e-06,
        "meta_mean_motion_ddot": 0,
        "tle_line1": "1 44333U 19034A   25343.51863838 -.00000113  00000+0  00000+0 0  9997",
        "tle_line2": "2 44333   0.0236  62.6366 0000542  92.9830   8.7393  1.00268587 23733"
      },
      "geometry": {
        "type": "Point",
        "coordinates": [
          -128.01462270736752,
          -0.010575439021571157
        ]
      }
    },
    {
      "type": "Feature",
      "properties": {
        "norad_id": 44476,
        "name": "INTELSAT 39 (IS-39)",
        "group": "intelsat",
        "lat": 0.03186765870187375,
        "lon": 34.77884185003706,
        "alt_km": 35788.56729904361,
        "timestamp": "2025-12-09T16:56:36.248310+00:00",
        "meta_object_name": "INTELSAT 39 (IS-39)",
        "meta_object_id": "2019-049B",
        "meta_epoch": "2025-12-09T10:26:40.662240",
        "meta_mean_motion": 1.00270066,
        "meta_eccentricity": 0.0001022,
        "meta_inclination": 0.0161,
        "meta_ra_of_asc_node": 318.1263,
        "meta_arg_of_pericenter": 194.8916,
        "meta_mean_anomaly": 144.0277,
        "meta_ephemeris_type": 0,
        "meta_classification_type": "U",
        "meta_norad_cat_id": 44476,
        "meta_element_set_no": 999,
        "meta_rev_at_epoch": 2322,
        "meta_bstar": 0,
        "meta_mean_motion_dot": 3.6e-07,
        "meta_mean_motion_ddot": 0,
        "tle_line1": "1 44476U 19049B   25343.43519285  .00000036  00000+0  00000+0 0  9999",
        "tle_line2": "2 44476   0.0161 318.1263 0001022 194.8916 144.0277  1.00270066 23228"
      },
      "geometry": {
        "type": "Point",
        "coordinates": [
          34.77884185003706,
          0.03186765870187375
        ]
      }
    },
    {
      "type": "Feature",
      "properties": {
        "norad_id": 46114,
        "name": "GALAXY 30 (G-30)",
        "group": "intelsat",
        "lat": -0.01919713734012651,
        "lon": -152.18453898432517,
        "alt_km": 35779.6300607542,
        "timestamp": "2025-12-09T16:56:36.248322+00:00",
        "meta_object_name": "GALAXY 30 (G-30)",
        "meta_object_id": "2020-056C",
        "meta_epoch": "2025-12-09T09:54:15.136416",
        "meta_mean_motion": 1.00271447,
        "meta_eccentricity": 0.0002386,
        "meta_inclination": 0.0167,
        "meta_ra_of_asc_node": 3.1394,
        "meta_arg_of_pericenter": 254.3856,
        "meta_mean_anomaly": 204.4379,
        "meta_ephemeris_type": 0,
        "meta_classification_type": "U",
        "meta_norad_cat_id": 46114,
        "meta_element_set_no": 999,
        "meta_rev_at_epoch": 1939,
        "meta_bstar": 0,
        "meta_mean_motion_dot": 3.9e-07,
        "meta_mean_motion_ddot": 0,
        "tle_line1": "1 46114U 20056C   25343.41267519  .00000039  00000+0  00000+0 0  9991",
        "tle_line2": "2 46114   0.0167   3.1394 0002386 254.3856 204.4379  1.00271447 19391"
      },
      "geometry": {
        "type": "Point",
        "coordinates": [
          -152.18453898432517,
          -0.01919713734012651
        ]
      }
    },
    {
      "type": "Feature",
      "properties": {
        "norad_id": 54026,
        "name": "GALAXY 33 (G-33)",
        "group": "intelsat",
        "lat": -0.02555323697378539,
        "lon": -160.1754219116752,
        "alt_km": 35779.881079317885,
        "timestamp": "2025-12-09T16:56:36.248334+00:00",
        "meta_object_name": "GALAXY 33 (G-33)",
        "meta_object_id": "2022-128A",
        "meta_epoch": "2025-12-09T12:02:03.514848",
        "meta_mean_motion": 1.00272257,
        "meta_eccentricity": 0.0002229,
        "meta_inclination": 0.0135,
        "meta_ra_of_asc_node": 306.5722,
        "meta_arg_of_pericenter": 303.2517,
        "meta_mean_anomaly": 236.1853,
        "meta_ephemeris_type": 0,
        "meta_classification_type": "U",
        "meta_norad_cat_id": 54026,
        "meta_element_set_no": 999,
        "meta_rev_at_epoch": 1184,
        "meta_bstar": 0,
        "meta_mean_motion_dot": 8.1e-07,
        "meta_mean_motion_ddot": 0,
        "tle_line1": "1 54026U 22128A   25343.50142957  .00000081  00000+0  00000+0 0  9999",
        "tle_line2": "2 54026   0.0135 306.5722 0002229 303.2517 236.1853  1.00272257 11847"
      },
      "geometry": {
        "type": "Point",
        "coordinates": [
          -160.1754219116752,
          -0.02555323697378539
        ]
      }
    },
    {
      "type": "Feature",
      "properties": {
        "norad_id": 54027,
        "name": "GALAXY 34 (G-34)",
        "group": "intelsat",
        "lat": -0.036016579133086236,
        "lon": -156.1014971201198,
        "alt_km": 35782.55462996133,
        "timestamp": "2025-12-09T16:56:36.248346+00:00",
        "meta_object_name": "GALAXY 34 (G-34)",
        "meta_object_id": "2022-128B",
        "meta_epoch": "2025-12-09T12:03:30.798720",
        "meta_mean_motion": 1.00270489,
        "meta_eccentricity": 0.0001277,
        "meta_inclination": 0.0251,
        "meta_ra_of_asc_node": 323.7611,
        "meta_arg_of_pericenter": 284.1418,
        "meta_mean_anomaly": 242.5368,
        "meta_ephemeris_type": 0,
        "meta_classification_type": "U",
        "meta_norad_cat_id": 54027,
        "meta_element_set_no": 999,
        "meta_rev_at_epoch": 1201,
        "meta_bstar": 0,
        "meta_mean_motion_dot": 0,
        "meta_mean_motion_ddot": 0,
        "tle_line1": "1 54027U 22128B   25343.50243980  .00000000  00000+0  00000+0 0  9999",
        "tle_line2": "2 54027   0.0251 323.7611 0001277 284.1418 242.5368  1.00270489 12011"
      },
      "geometry": {
        "type": "Point",
        "coordinates": [
          -156.1014971201198,
          -0.036016579133086236
        ]
      }
    },
    {
      "type": "Feature",
      "properties": {
        "norad_id": 54243,
        "name": "GALAXY 31 (G-31)",
        "group": "intelsat",
        "lat": -0.020193182067991335,
        "lon": -148.17365166056334,
        "alt_km": 35781.816951250614,
        "timestamp": "2025-12-09T16:56:36.248357+00:00",
        "meta_object_name": "GALAXY 31 (G-31)",
        "meta_object_id": "2022-153A",
        "meta_epoch": "2025-12-09T12:40:55.450848",
        "meta_mean_motion": 1.00271959,
        "meta_eccentricity": 0.0001903,
        "meta_inclination": 0.0189,
        "meta_ra_of_asc_node": 256.7344,
        "meta_arg_of_pericenter": 13.663,
        "meta_mean_anomaly": 237.3558,
        "meta_ephemeris_type": 0,
        "meta_classification_type": "U",
        "meta_norad_cat_id": 54243,
        "meta_element_set_no": 999,
        "meta_rev_at_epoch": 523,
        "meta_bstar": 0,
        "meta_mean_motion_dot": 1.5e-07,
        "meta_mean_motion_ddot": 0,
        "tle_line1": "1 54243U 22153A   25343.52841957  .00000015  00000+0  00000+0 0  9993",
        "tle_line2": "2 54243   0.0189 256.7344 0001903  13.6630 237.3558  1.00271959  5238"
      },
      "geometry": {
        "type": "Point",
        "coordinates": [
          -148.17365166056334,
          -0.020193182067991335
        ]
      }
    },
    {
      "type": "Feature",
      "properties": {
        "norad_id": 54244,
        "name": "GALAXY 32 (G-32)",
        "group": "intelsat",
        "lat": -0.02859818174217876,
        "lon": -118.1923278099605,
        "alt_km": 35781.97491863351,
        "timestamp": "2025-12-09T16:56:36.248369+00:00",
        "meta_object_name": "GALAXY 32 (G-32)",
        "meta_object_id": "2022-153B",
        "meta_epoch": "2025-12-09T12:24:44.332128",
        "meta_mean_motion": 1.00270521,
        "meta_eccentricity": 0.0002724,
        "meta_inclination": 0.0086,
        "meta_ra_of_asc_node": 338.62,
        "meta_arg_of_pericenter": 330.4778,
        "meta_mean_anomaly": 224.5904,
        "meta_ephemeris_type": 0,
        "meta_classification_type": "U",
        "meta_norad_cat_id": 54244,
        "meta_element_set_no": 999,
        "meta_rev_at_epoch": 1124,
        "meta_bstar": 0,
        "meta_mean_motion_dot": -1.72e-06,
        "meta_mean_motion_ddot": 0,
        "tle_line1": "1 54244U 22153B   25343.51717977 -.00000172  00000+0  00000+0 0  9992",
        "tle_line2": "2 54244   0.0086 338.6200 0002724 330.4778 224.5904  1.00270521 11246"
      },
      "geometry": {
        "type": "Point",
        "coordinates": [
          -118.1923278099605,
          -0.02859818174217876
        ]
      }
    }
  ]
}